CCSDS_OMM_VERS = 2.0
CREATION_DATE  = 
ORIGINATOR     = 

OBJECT_NAME    = UNKNOWN
OBJECT_ID      = 
CENTER_NAME    = EARTH
REF_FRAME      = TEME
TIME_SYSTEM    = UTC
MEAN_ELEMENT_THEORY = SGP/SGP4

EPOCH          = 2025-12-14T10:39:36.504864
MEAN_MOTION    = 8.86515636
ECCENTRICITY   = .2933697
INCLINATION    = 63.4294
RA_OF_ASC_NODE = 48.4602
ARG_OF_PERICENTER = 319.5797
MEAN_ANOMALY   = 21.9810

EPHEMERIS_TYPE = 0
CLASSIFICATION_TYPE = U
NORAD_CAT_ID   = 89132
ELEMENT_SET_NO = 999
REV_AT_EPOCH   = 32526
BSTAR          = .71234E-2
MEAN_MOTION_DOT = .538E-4
MEAN_MOTION_DDOT = 0

CCSDS_OMM_VERS = 2.0
CREATION_DATE  = 
ORIGINATOR     = 

OBJECT_NAME    = UNKNOWN
OBJECT_ID      = 
CENTER_NAME    = EARTH
REF_FRAME      = TEME
TIME_SYSTEM    = UTC
MEAN_ELEMENT_THEORY = SGP/SGP4

EPOCH          = 2025-12-18T06:05:32.306496
MEAN_MOTION    = 14.63091345
ECCENTRICITY   = .0094621
INCLINATION    = 98.2488
RA_OF_ASC_NODE = 280.9757
ARG_OF_PERICENTER = 38.7000
MEAN_ANOMALY   = 322.0931

EPHEMERIS_TYPE = 0
CLASSIFICATION_TYPE = U
NORAD_CAT_ID   = 89146
ELEMENT_SET_NO = 999
REV_AT_EPOCH   = 62968
BSTAR          = .78441E-3
MEAN_MOTION_DOT = .4247E-4
MEAN_MOTION_DDOT = 0

CCSDS_OMM_VERS = 2.0
CREATION_DATE  = 
ORIGINATOR     = 

OBJECT_NAME    = UNKNOWN
OBJECT_ID      = 
CENTER_NAME    = EARTH
REF_FRAME      = TEME
TIME_SYSTEM    = UTC
MEAN_ELEMENT_THEORY = SGP/SGP4

EPOCH          = 2025-12-17T11:49:13.560384
MEAN_MOTION    = 15.40760275
ECCENTRICITY   = .0038305
INCLINATION    = 97.6573
RA_OF_ASC_NODE = 7.4203
ARG_OF_PERICENTER = 49.3742
MEAN_ANOMALY   = 311.0825

EPHEMERIS_TYPE = 0
CLASSIFICATION_TYPE = U
NORAD_CAT_ID   = 89161
ELEMENT_SET_NO = 999
REV_AT_EPOCH   = 54931
BSTAR          = .1785E-2
MEAN_MOTION_DOT = .75467E-3
MEAN_MOTION_DDOT = 0

CCSDS_OMM_VERS = 2.0
CREATION_DATE  = 
ORIGINATOR     = 

OBJECT_NAME    = UNKNOWN
OBJECT_ID      = 
CENTER_NAME    = EARTH
REF_FRAME      = TEME
TIME_SYSTEM    = UTC
MEAN_ELEMENT_THEORY = SGP/SGP4

EPOCH          = 2025-12-18T08:35:43.429920
MEAN_MOTION    = 14.46633501
ECCENTRICITY   = .0290638
INCLINATION    = 82.0639
RA_OF_ASC_NODE = 216.6739
ARG_OF_PERICENTER = 264.2520
MEAN_ANOMALY   = 92.5474

EPHEMERIS_TYPE = 0
CLASSIFICATION_TYPE = U
NORAD_CAT_ID   = 89172
ELEMENT_SET_NO = 999
REV_AT_EPOCH   = 60270
BSTAR          = .16846E-2
MEAN_MOTION_DOT = .10362E-3
MEAN_MOTION_DDOT = 0

CCSDS_OMM_VERS = 2.0
CREATION_DATE  = 
ORIGINATOR     = 

OBJECT_NAME    = UNKNOWN
OBJECT_ID      = 
CENTER_NAME    = EARTH
REF_FRAME      = TEME
TIME_SYSTEM    = UTC
MEAN_ELEMENT_THEORY = SGP/SGP4

EPOCH          = 2025-12-16T12:31:15.313728
MEAN_MOTION    = 13.73726912
ECCENTRICITY   = .0033329
INCLINATION    = 82.9213
RA_OF_ASC_NODE = 266.3145
ARG_OF_PERICENTER = 130.3422
MEAN_ANOMALY   = 230.0653

EPHEMERIS_TYPE = 0
CLASSIFICATION_TYPE = U
NORAD_CAT_ID   = 89177
ELEMENT_SET_NO = 999
REV_AT_EPOCH   = 6334
BSTAR          = .73177E-4
MEAN_MOTION_DOT = .84E-6
MEAN_MOTION_DDOT = 0

CCSDS_OMM_VERS = 2.0
CREATION_DATE  = 
ORIGINATOR     = 

OBJECT_NAME    = UNKNOWN
OBJECT_ID      = 
CENTER_NAME    = EARTH
REF_FRAME      = TEME
TIME_SYSTEM    = UTC
MEAN_ELEMENT_THEORY = SGP/SGP4

EPOCH          = 2025-12-18T13:18:44.411616
MEAN_MOTION    = 13.81585701
ECCENTRICITY   = .0130334
INCLINATION    = 99.2189
RA_OF_ASC_NODE = 263.4991
ARG_OF_PERICENTER = 140.8242
MEAN_ANOMALY   = 220.2435

EPHEMERIS_TYPE = 0
CLASSIFICATION_TYPE = U
NORAD_CAT_ID   = 89183
ELEMENT_SET_NO = 999
REV_AT_EPOCH   = 60777
BSTAR          = .3926E-3
MEAN_MOTION_DOT = .404E-5
MEAN_MOTION_DDOT = 0

CCSDS_OMM_VERS = 2.0
CREATION_DATE  = 
ORIGINATOR     = 

OBJECT_NAME    = UNKNOWN
OBJECT_ID      = 
CENTER_NAME    = EARTH
REF_FRAME      = TEME
TIME_SYSTEM    = UTC
MEAN_ELEMENT_THEORY = SGP/SGP4

EPOCH          = 2025-12-13T10:13:02.074080
MEAN_MOTION    = 14.81116511
ECCENTRICITY   = .0009511
INCLINATION    = 98.3888
RA_OF_ASC_NODE = 212.1820
ARG_OF_PERICENTER = 115.4257
MEAN_ANOMALY   = 244.7939

EPHEMERIS_TYPE = 0
CLASSIFICATION_TYPE = U
NORAD_CAT_ID   = 89184
ELEMENT_SET_NO = 999
REV_AT_EPOCH   = 49227
BSTAR          = .57397E-2
MEAN_MOTION_DOT = .44844E-3
MEAN_MOTION_DDOT = 0

CCSDS_OMM_VERS = 2.0
CREATION_DATE  = 
ORIGINATOR     = 

OBJECT_NAME    = UNKNOWN
OBJECT_ID      = 
CENTER_NAME    = EARTH
REF_FRAME      = TEME
TIME_SYSTEM    = UTC
MEAN_ELEMENT_THEORY = SGP/SGP4

EPOCH          = 2025-12-18T02:15:27.035424
MEAN_MOTION    = 13.91592581
ECCENTRICITY   = .0228341
INCLINATION    = 98.7791
RA_OF_ASC_NODE = 224.9572
ARG_OF_PERICENTER = 111.6878
MEAN_ANOMALY   = 250.8763

EPHEMERIS_TYPE = 0
CLASSIFICATION_TYPE = U
NORAD_CAT_ID   = 89213
ELEMENT_SET_NO = 999
REV_AT_EPOCH   = 45341
BSTAR          = .34261E-3
MEAN_MOTION_DOT = .498E-5
MEAN_MOTION_DDOT = 0

CCSDS_OMM_VERS = 2.0
CREATION_DATE  = 
ORIGINATOR     = 

OBJECT_NAME    = UNKNOWN
OBJECT_ID      = 
CENTER_NAME    = EARTH
REF_FRAME      = TEME
TIME_SYSTEM    = UTC
MEAN_ELEMENT_THEORY = SGP/SGP4

EPOCH          = 2025-12-18T10:31:13.734624
MEAN_MOTION    = 9.24946007
ECCENTRICITY   = .2832088
INCLINATION    = 62.4771
RA_OF_ASC_NODE = 355.9881
ARG_OF_PERICENTER = 101.2238
MEAN_ANOMALY   = 291.6243

EPHEMERIS_TYPE = 0
CLASSIFICATION_TYPE = U
NORAD_CAT_ID   = 89251
ELEMENT_SET_NO = 999
REV_AT_EPOCH   = 37371
BSTAR          = .767E-2
MEAN_MOTION_DOT = .13057E-3
MEAN_MOTION_DDOT = 0

CCSDS_OMM_VERS = 2.0
CREATION_DATE  = 
ORIGINATOR     = 

OBJECT_NAME    = UNKNOWN
OBJECT_ID      = 
CENTER_NAME    = EARTH
REF_FRAME      = TEME
TIME_SYSTEM    = UTC
MEAN_ELEMENT_THEORY = SGP/SGP4

EPOCH          = 2025-12-15T06:00:50.035104
MEAN_MOTION    = 14.43119586
ECCENTRICITY   = .0013456
INCLINATION    = 98.1538
RA_OF_ASC_NODE = 343.5564
ARG_OF_PERICENTER = 146.8272
MEAN_ANOMALY   = 213.3765

EPHEMERIS_TYPE = 0
CLASSIFICATION_TYPE = U
NORAD_CAT_ID   = 89261
ELEMENT_SET_NO = 999
REV_AT_EPOCH   = 53417
BSTAR          = .30208E-3
MEAN_MOTION_DOT = .974E-5
MEAN_MOTION_DDOT = 0

CCSDS_OMM_VERS = 2.0
CREATION_DATE  = 
ORIGINATOR     = 

OBJECT_NAME    = UNKNOWN
OBJECT_ID      = 
CENTER_NAME    = EARTH
REF_FRAME      = TEME
TIME_SYSTEM    = UTC
MEAN_ELEMENT_THEORY = SGP/SGP4

EPOCH          = 2025-12-18T14:26:31.797888
MEAN_MOTION    = 9.03648346
ECCENTRICITY   = .2850018
INCLINATION    = 84.3062
RA_OF_ASC_NODE = 102.4453
ARG_OF_PERICENTER = 338.0562
MEAN_ANOMALY   = 20.8824

EPHEMERIS_TYPE = 0
CLASSIFICATION_TYPE = U
NORAD_CAT_ID   = 89304
ELEMENT_SET_NO = 999
REV_AT_EPOCH   = 43893
BSTAR          = .23011E-1
MEAN_MOTION_DOT = .18998E-3
MEAN_MOTION_DDOT = 0

CCSDS_OMM_VERS = 2.0
CREATION_DATE  = 
ORIGINATOR     = 

OBJECT_NAME    = UNKNOWN
OBJECT_ID      = 
CENTER_NAME    = EARTH
REF_FRAME      = TEME
TIME_SYSTEM    = UTC
MEAN_ELEMENT_THEORY = SGP/SGP4

EPOCH          = 2025-12-16T00:05:34.357632
MEAN_MOTION    = 12.96246299
ECCENTRICITY   = .002865
INCLINATION    = 90.2444
RA_OF_ASC_NODE = 7.4247
ARG_OF_PERICENTER = 256.6764
MEAN_ANOMALY   = 103.1160

EPHEMERIS_TYPE = 0
CLASSIFICATION_TYPE = U
NORAD_CAT_ID   = 89349
ELEMENT_SET_NO = 999
REV_AT_EPOCH   = 47917
BSTAR          = -.50348E-3
MEAN_MOTION_DOT = -.137E-5
MEAN_MOTION_DDOT = 0

CCSDS_OMM_VERS = 2.0
CREATION_DATE  = 
ORIGINATOR     = 

OBJECT_NAME    = UNKNOWN
OBJECT_ID      = 
CENTER_NAME    = EARTH
REF_FRAME      = TEME
TIME_SYSTEM    = UTC
MEAN_ELEMENT_THEORY = SGP/SGP4

EPOCH          = 2025-12-18T12:18:04.153248
MEAN_MOTION    = 13.62756421
ECCENTRICITY   = .0042076
INCLINATION    = 100.4818
RA_OF_ASC_NODE = 8.2102
ARG_OF_PERICENTER = 116.3917
MEAN_ANOMALY   = 244.1549

EPHEMERIS_TYPE = 0
CLASSIFICATION_TYPE = U
NORAD_CAT_ID   = 89379
ELEMENT_SET_NO = 999
REV_AT_EPOCH   = 58156
BSTAR          = .47607E-2
MEAN_MOTION_DOT = .3687E-4
MEAN_MOTION_DDOT = 0

CCSDS_OMM_VERS = 2.0
CREATION_DATE  = 
ORIGINATOR     = 

OBJECT_NAME    = UNKNOWN
OBJECT_ID      = 
CENTER_NAME    = EARTH
REF_FRAME      = TEME
TIME_SYSTEM    = UTC
MEAN_ELEMENT_THEORY = SGP/SGP4

EPOCH          = 2025-12-15T21:25:19.265376
MEAN_MOTION    = 12.01514395
ECCENTRICITY   = .0222398
INCLINATION    = 102.3666
RA_OF_ASC_NODE = 317.9549
ARG_OF_PERICENTER = 119.5893
MEAN_ANOMALY   = 304.5400

EPHEMERIS_TYPE = 0
CLASSIFICATION_TYPE = U
NORAD_CAT_ID   = 89395
ELEMENT_SET_NO = 999
REV_AT_EPOCH   = 52512
BSTAR          = -.20254E-2
MEAN_MOTION_DOT = -.22E-5
MEAN_MOTION_DDOT = 0

CCSDS_OMM_VERS = 2.0
CREATION_DATE  = 
ORIGINATOR     = 

OBJECT_NAME    = UNKNOWN
OBJECT_ID      = 
CENTER_NAME    = EARTH
REF_FRAME      = TEME
TIME_SYSTEM    = UTC
MEAN_ELEMENT_THEORY = SGP/SGP4

EPOCH          = 2025-12-18T00:39:18.463392
MEAN_MOTION    = 12.98754025
ECCENTRICITY   = .0028714
INCLINATION    = 90.2464
RA_OF_ASC_NODE = 5.9256
ARG_OF_PERICENTER = 202.4991
MEAN_ANOMALY   = 185.2212

EPHEMERIS_TYPE = 0
CLASSIFICATION_TYPE = U
NORAD_CAT_ID   = 89403
ELEMENT_SET_NO = 999
REV_AT_EPOCH   = 47851
BSTAR          = .24895E-2
MEAN_MOTION_DOT = .744E-5
MEAN_MOTION_DDOT = 0

CCSDS_OMM_VERS = 2.0
CREATION_DATE  = 
ORIGINATOR     = 

OBJECT_NAME    = UNKNOWN
OBJECT_ID      = 
CENTER_NAME    = EARTH
REF_FRAME      = TEME
TIME_SYSTEM    = UTC
MEAN_ELEMENT_THEORY = SGP/SGP4

EPOCH          = 2025-12-18T11:14:06.705888
MEAN_MOTION    = 9.14891323
ECCENTRICITY   = .2856955
INCLINATION    = 84.0432
RA_OF_ASC_NODE = 153.0788
ARG_OF_PERICENTER = 19.2357
MEAN_ANOMALY   = 349.7310

EPHEMERIS_TYPE = 0
CLASSIFICATION_TYPE = U
NORAD_CAT_ID   = 89484
ELEMENT_SET_NO = 999
REV_AT_EPOCH   = 35596
BSTAR          = .20328E-1
MEAN_MOTION_DOT = .27498E-3
MEAN_MOTION_DDOT = 0

